275P/Hermann,e,21.2492,348.7199,173.8385,5.800510,0.0705513,0.71396196,340.0394,01/18.0/2026,2000,g 15.0,4.0
# From MPEC 2026-A24
276P/Vorobjov,e,14.7311,210.9461,199.8033,5.386619,0.0788369,0.27629110,31.6673,01/18.0/2026,2000,g 11.5,4.0
# From MPEC 2025-W75
277P/LINEAR,e,16.7929,276.2597,152.4512,3.853535,0.1302912,0.50628868,240.1144,01/18.0/2026,2000,g 14.0,4.0
# From MPEC 2025-W75
278P/McNaught,e,6.6396,10.8192,243.0890,3.617078,0.1432740,0.45472176,273.2931,01/18.0/2026,2000,g 14.0,4.0
# From MPEC 2025-W75
279P/LaSagra,e,5.0548,346.0924,5.5734,3.566608,0.1463258,0.39969139,147.1179,01/18.0/2026,2000,g 14.0,4.0
# From MPEC 2025-W75
280P/Larsen,e,11.7754,131.3779,104.5896,4.522948,0.1024641,0.41699568,91.9730,01/18.0/2026,2000,g 12.5,4.0
# From MPEC 2025-W75
281P/MOSS,e,4.7175,87.1677,27.1357,4.888658,0.0911842,0.17391411,98.2853,01/18.0/2026,2000,g 11.0,4.0
# From MPEC 2025-W75
283P/Spacewatch,e,14.4712,161.1273,22.1504,4.130610,0.1174040,0.48538419,186.8885,01/18.0/2026,2000,g 16.0,2.0
# From MPEC 2025-W75
284P/McNaught,e,11.8517,144.2596,202.4394,3.679633,0.1396360,0.37412922,222.0931,01/18.0/2026,2000,g 13.0,4.0
# From MPEC 2025-W75
285P/LINEAR,e,25.0298,185.5175,178.3718,4.504890,0.1030808,0.61789309,113.6495,01/18.0/2026,2000,g 15.0,4.0
# From MPEC 2025-W75
286P/Christensen,e,17.2320,283.5687,23.4258,4.055402,0.1206850,0.43717217,162.2190,01/18.0/2026,2000,g 14.0,4.0
# From MPEC 2025-W75
287P/Christensen,e,16.4538,138.2768,191.9410,4.209727,0.1141099,0.27145423,104.7991,01/18.0/2026,2000,g 13.5,4.0
# From MPC133426
288P/,e,3.2382,83.1074,280.2461,3.051132,0.1849322,0.19942236,262.5384,01/18.0/2026,2000,g 16.0,2.0
# From MPEC 2025-W75
289P/Blanpain,e,5.9001,68.8916,9.8800,3.043634,0.1856160,0.68640203,51.7297,01/18.0/2026,2000,g 19.0,4.0
# From MPEC 2025-W75
290P/Jager,e,20.0116,302.6437,181.9064,6.212961,0.0636438,0.62805229,278.4384,01/18.0/2026,2000,g 10.5,4.0
# From MPEC 2025-W75
291P/NEAT,e,6.3091,237.6670,173.5853,4.535826,0.1020280,0.43363089,101.0250,01/18.0/2026,2000,g 13.0,4.0
# From MPEC 2025-W75
292P/Li,e,24.3215,90.8953,319.6713,6.094878,0.0655023,0.58972004,285.2587,01/18.0/2026,2000,g 12.5,4.0
# From MPEC 2025-W75
293P/Spacewatch,e,9.0617,78.3890,40.9902,3.636786,0.1421109,0.41966547,263.3558,01/18.0/2026,2000,g 14.5,4.0
# From MPEC 2025-W75
294P/LINEAR,e,17.7432,309.5988,237.5918,3.190686,0.1729331,0.60100687,27.6347,01/18.0/2026,2000,g 15.5,4.0
# From MPEC 2025-YF1
295P/LINEAR,e,21.0877,7.3780,73.0658,5.296756,0.0808517,0.61756473,344.9806,01/18.0/2026,2000,g 12.0,4.0
# From MPEC 2025-W75
296P/Garradd,e,25.3469,263.4799,350.5480,3.463799,0.1528886,0.48700735,294.8082,01/18.0/2026,2000,g 14.0,4.0
# From MPEC 2025-W75
297P/Beshore,e,11.2999,90.0193,145.0121,3.570986,0.1460568,0.27802316,265.4281,01/18.0/2026,2000,g 15.0,4.0
# From MPEC 2025-W75
298P/Christensen,e,7.8732,52.7818,100.6386,3.587776,0.1450328,0.38712201,284.1996,01/18.0/2026,2000,g 15.0,4.0
# From MPEC 2025-W75
299P/Catalina-PANSTARRS,e,10.4685,271.5767,323.5703,4.387829,0.1072333,0.28099426,67.3609,01/18.0/2026,2000,g 11.5,4.0
# From MPEC 2025-W75
300P/Catalina,e,5.6761,95.6161,222.8774,2.695736,0.2226835,0.69252883,225.5636,01/18.0/2026,2000,g 16.0,4.0
# From MPEC 2025-W75
301P/LINEAR-NEAT,e,10.3255,351.1198,193.3559,5.754151,0.0714056,0.58648985,299.3245,01/18.0/2026,2000,g 13.0,4.0
# From MPEC 2026-A90
302P/Lemmon-PANSTARRS,e,6.0356,121.7169,208.5997,4.265689,0.1118717,0.22906224,35.2126,01/18.0/2026,2000,g 12.5,4.0
# From MPEC 2025-W75
303P/NEAT,e,7.0166,347.9059,357.0572,5.038091,0.0871576,0.51007004,357.1303,01/18.0/2026,2000,g 13.5,4.0
# From MPEC 2025-W75
304P/Ory,e,2.6065,58.9011,335.3241,3.148915,0.1763854,0.60076136,349.5573,01/18.0/2026,2000,g 16.5,4.0
# From MPEC 2025-W75
305P/Skiff,e,11.6699,240.0750,147.3729,4.631695,0.0988767,0.69401846,42.2113,01/18.0/2026,2000,g 18.0,4.0
# From MPEC 2025-X35
306P/LINEAR,e,8.3017,341.3354,0.9264,3.124431,0.1784628,0.59254452,30.2215,01/18.0/2026,2000,g 19.0,4.0
# From MPEC 2025-W75
307P/LINEAR,e,4.4308,158.0515,222.3063,5.791240,0.0707207,0.67489526,285.5184,01/18.0/2026,2000,g 15.0,4.0
# From MPEC 2025-W75
308P/Lagerkvist-Carsenty,e,4.8532,63.0378,333.8234,6.602782,0.0580916,0.36375179,226.6232,01/18.0/2026,2000,g 13.0,2.0
# From MPEC 2025-W75
309P/LINEAR,e,17.0162,10.1383,49.9371,4.375230,0.1076968,0.61807760,71.0929,01/18.0/2026,2000,g 15.0,4.0
# From MPEC 2025-W75
310P/Hill,e,13.1196,8.8843,31.5115,4.180633,0.1153031,0.42188904,94.3244,01/18.0/2026,2000,g 13.5,4.0
# From MPEC 2025-W75
311P/PANSTARRS,e,4.9713,279.1681,144.3222,2.188876,0.3043493,0.11538257,227.3657,01/18.0/2026,2000,g 17.0,4.0
# From MPEC 2025-W75
312P/NEAT,e,19.7454,144.6263,207.6800,3.473106,0.1522744,0.42653096,295.8131,01/18.0/2026,2000,g 16.0,4.0
# From MPEC 2025-XC7
313P/Gibbs,e,10.9811,105.9250,254.9995,3.162433,0.1752557,0.23426482,8.0990,01/18.0/2026,2000,g 15.0,4.0
# From MPEC 2025-W75
314P/Montani,e,3.9917,267.6204,213.8981,7.248342,0.0505064,0.41878730,170.7829,01/18.0/2026,2000,g  9.5,4.0
# From MPEC 2025-WD0
315P/LONEOS,e,17.7376,68.6207,65.9729,4.934477,0.0899171,0.52225581,299.9832,01/18.0/2026,2000,g 11.0,4.0
# From MPEC 2025-W75
316P/LONEOS-Christensen,e,9.8650,245.8069,186.3615,4.396104,0.1069306,0.15517630,50.8516,01/18.0/2026,2000,g 13.5,4.0
# From MPEC 2025-W75
317P/WISE,e,11.9746,275.4723,334.8842,2.959892,0.1935487,0.57207743,15.3186,01/18.0/2026,2000,g 17.5,4.0
# From MPEC 2025-W75
318P/McNaught-Hartley,e,17.8711,35.5744,313.3278,7.516953,0.0478235,0.67277977,178.9926,01/18.0/2026,2000,g  8.5,6.0
# From MPEC 2025-W75
319P/Catalina-McNaught,e,15.0990,111.3691,203.5644,3.561575,0.1466361,0.66693864,203.7741,01/18.0/2026,2000,g 15.0,4.0
# From MPEC 2025-W75
320P/McNaught,e,4.9009,295.9475,0.7515,3.096283,0.1809019,0.68500479,330.9074,01/18.0/2026,2000,g 20.5,4.0
# From MPEC 2025-W75
322P/SOHO,e,11.4367,351.3960,57.0137,2.508711,0.2480437,0.97984706,0.0000,08/11.5669/2027,2000,g 19.0,4.0
# From MPEC 2025-W75
323P/SOHO,e,5.2590,323.9269,353.3412,2.463833,0.2548514,0.98377757,0.0000,03/14.2617/2025,2000,g 20.0,4.0
# From MPEC 2025-W75
324P/LaSagra,e,21.3989,270.5691,57.3494,3.097762,0.1807724,0.15273878,311.2758,01/18.0/2026,2000,g 13.0,4.0
# From MPEC 2025-W75
325P/Yang-Gao,e,16.8380,256.8642,344.8652,3.551066,0.1472875,0.58654992,205.8522,01/18.0/2026,2000,g 14.0,4.0
# From MPEC 2025-W75
326P/Hill,e,2.4737,99.7591,277.7636,4.056740,0.1206253,0.32082408,90.7724,01/18.0/2026,2000,g 13.5,4.0
# From MPEC 2025-W75
327P/VanNess,e,36.2236,173.9987,185.0290,3.563330,0.1465278,0.56235371,180.8935,01/18.0/2026,2000,g 16.0,4.0
# From MPEC 2025-W75
328P/LONEOS-Tucker,e,17.7042,341.4920,30.5998,4.185101,0.1151185,0.55336777,62.0641,01/18.0/2026,2000,g 14.5,4.0
# From MPEC 2025-W75
329P/LINEAR-Catalina,e,21.7289,87.6536,343.6549,5.180369,0.0835917,0.67880108,308.5275,01/18.0/2026,2000,g 13.5,4.0
# From MPEC 2025-W75
330P/Catalina,e,15.7421,293.0854,188.8581,6.613957,0.0579445,0.55079939,198.4654,01/18.0/2026,2000,g 12.0,4.0
# From MPEC 2025-YF1
331P/Gibbs,e,9.7410,216.7417,185.8008,3.002835,0.1894117,0.04144125,4.4374,01/18.0/2026,2000,g 12.0,4.0
# From MPEC 2016-K18
332P/Ikeya-Murakami,e,9.3867,3.7557,152.3043,3.085924,0.1818135,0.49000408,293.3411,01/18.0/2026,2000,g 18.0,4.0
# From MPEC 2016-K18
332P-A/Ikeya-Murakami,e,9.3862,152.3177,3.7436,3.085898,0.1818159,0.49001208,293.3399,01/18.0/2026,2000,g 18.0,4.0
# From MPEC 2016-EI8
332P-B/Ikeya-Murakami,e,9.3805,3.8028,152.3711,3.082329,0.1821317,0.48970701,359.9699,03/17.0/2016,2000,g 19.0,4.0
# From MPEC 2016-K18
332P-C/Ikeya-Murakami,e,9.3852,152.3090,3.7440,3.085864,0.1818188,0.49001757,293.3588,01/18.0/2026,2000,g 16.5,4.0
# From MPEC 2016-ED0
332P-D/Ikeya-Murakami,e,9.3761,3.7923,152.4393,3.081138,0.1822373,0.48977814,359.9486,03/17.0/2016,2000,g 19.0,4.0
# From MPEC 2016-ED0
332P-G/Ikeya-Murakami,e,9.2523,3.6955,154.4000,3.050519,0.1849880,0.49200362,359.9006,03/19.0/2016,2000,g 19.0,4.0
# From MPC100285
332P-H/Ikeya-Murakami,e,9.3858,152.3096,3.7438,3.086042,0.1818031,0.49005375,293.2676,01/18.0/2026,2000,g 19.0,4.0
# From MPEC 2016-ED0
332P-I/Ikeya-Murakami,e,9.3791,3.8048,152.3297,3.081767,0.1821815,0.48955490,359.9360,03/17.0/2016,2000,g 20.5,2.0
# From MPEC 2025-W75
333P/LINEAR,e,132.0239,115.7054,26.0367,4.221935,0.1136153,0.73631020,47.1145,01/18.0/2026,2000,g 15.0,4.0
# From MPEC 2025-W75
334P/NEAT,e,20.3619,90.2881,90.1252,6.822075,0.0553133,0.35242861,174.1422,01/18.0/2026,2000,g 10.5,4.0
# From MPEC 2025-W75
335P/Gibbs,e,7.2997,330.7852,162.3384,3.576941,0.1456922,0.54702561,182.7117,01/18.0/2026,2000,g 17.0,4.0
# From MPEC 2025-W75
336P/McNaught,e,17.9511,298.2199,309.1805,5.016435,0.0877226,0.45023592,285.8944,01/18.0/2026,2000,g 13.5,4.0
# From MPEC 2025-W75
337P/WISE,e,17.1129,101.9831,166.3451,3.388147,0.1580377,0.46259511,209.1288,01/18.0/2026,2000,g 17.0,4.0
# From MPEC 2025-W75
338P/McNaught,e,25.3870,9.6596,4.6237,3.893426,0.1282939,0.41290397,68.3585,01/18.0/2026,2000,g 12.0,4.0
# From MPEC 2025-W75
339P/Gibbs,e,5.7385,172.7140,27.4044,3.697937,0.1386005,0.63604193,120.6983,01/18.0/2026,2000,g 17.0,4.0
# From MPEC 2025-W75
340P/Boattini,e,2.0788,291.5970,36.0995,4.245373,0.1126757,0.27967021,15.9825,01/18.0/2026,2000,g 13.0,4.0
# From MPEC 2025-W75
341P/Gibbs,e,3.7964,29.9519,312.3775,4.284311,0.1111431,0.41492966,30.0370,01/18.0/2026,2000,g 12.5,4.0
# From MPEC 2025-W75
343P/NEAT-LONEOS,e,5.5969,257.0571,137.6022,5.458525,0.0772843,0.58452651,252.7903,01/18.0/2026,2000,g 14.0,4.0
# From MPEC 2025-W75
344P/Read,e,3.4995,273.0994,140.6566,4.853413,0.0921793,0.42361617,309.0231,01/18.0/2026,2000,g 13.0,4.0
# From MPEC 2025-W75
345P/LINEAR,e,2.7280,154.4743,197.0328,4.036414,0.1215375,0.22160048,61.2312,01/18.0/2026,2000,g 12.0,4.0
# From MPEC 2025-W75
346P/Catalina,e,22.2193,102.4567,336.1073,4.466293,0.1044199,0.50384613,339.6045,01/18.0/2026,2000,g 14.0,4.0
# From MPEC 2025-W75
347P/PANSTARRS,e,11.7650,260.9801,98.0230,3.598147,0.1444062,0.38718542,131.9775,01/18.0/2026,2000,g 15.0,4.0
# From MPEC 2025-W75
